[
  {
    "name": "ONEWEB-0309",
    "noradId": "49095",
    "line1": "1 49095U 21075W   26158.29325484  .00000012  00000+0 -27544-5 0  9991",
    "line2": "2 49095  87.9144   7.8314 0001742 102.3023 257.8304 13.17647649232273"
  },
  {
    "name": "ONEWEB-0310",
    "noradId": "49096",
    "line1": "1 49096U 21075X   26157.79111521 -.00000362  00000+0 -10405-2 0  9995",
    "line2": "2 49096  87.8942 352.7487 0001794  90.0385 270.0949 13.12442744233821"
  },
  {
    "name": "ONEWEB-0311",
    "noradId": "49097",
    "line1": "1 49097U 21075Y   26157.99627807  .00000119  00000+0  27302-3 0  9990",
    "line2": "2 49097  87.9139   7.8899 0002326  85.9415 274.1982 13.17648970232280"
  },
  {
    "name": "ONEWEB-0312",
    "noradId": "49098",
    "line1": "1 49098U 21075Z   26157.85958729 -.00000062  00000+0 -19168-3 0  9996",
    "line2": "2 49098  87.9140   7.9284 0002084  93.6899 266.4470 13.17649178232248"
  },
  {
    "name": "ONEWEB-0313",
    "noradId": "49099",
    "line1": "1 49099U 21075AA  26157.86450053 -.00000329  00000+0 -87978-3 0  9995",
    "line2": "2 49099  87.9139   7.9334 0001965  87.0806 273.0551 13.17647796232232"
  },
  {
    "name": "ONEWEB-0314",
    "noradId": "49100",
    "line1": "1 49100U 21075AB  26158.28651967  .00000007  00000+0 -14999-4 0  9998",
    "line2": "2 49100  87.9152   7.8205 0002142  94.4445 265.6931 13.17648691232262"
  },
  {
    "name": "ONEWEB-0315",
    "noradId": "49101",
    "line1": "1 49101U 21075AC  26157.84025717  .00000527  00000+0  14300-2 0  9998",
    "line2": "2 49101  87.8951 352.7029 0002130  85.7191 274.4181 13.12442619233817"
  },
  {
    "name": "ONEWEB-0316",
    "noradId": "49102",
    "line1": "1 49102U 21075AD  26158.21900072  .00006458  00000+0  16344-1 0  9995",
    "line2": "2 49102  87.9168 337.4408 0001754 112.6221 247.5097 13.18653368235893"
  },
  {
    "name": "ONEWEB-0317",
    "noradId": "49103",
    "line1": "1 49103U 21075AE  26157.99611954  .00000431  00000+0  11634-2 0  9991",
    "line2": "2 49103  87.8952 352.6951 0001187 105.1944 254.9316 13.12442727233854"
  },
  {
    "name": "ONEWEB-0318",
    "noradId": "49104",
    "line1": "1 49104U 21075AF  26158.21562284 -.00000064  00000+0 -19563-3 0  9993",
    "line2": "2 49104  87.9168 337.4420 0002067  87.6445 272.4924 13.18685287235853"
  },
  {
    "name": "ONEWEB-0319",
    "noradId": "49105",
    "line1": "1 49105U 21075AG  26157.99795449 -.00000002  00000+0 -37513-4 0  9997",
    "line2": "2 49105  87.9140   7.8954 0002376  80.6158 279.5243 13.17648139232269"
  },
  {
    "name": "ONEWEB-0323",
    "noradId": "49106",
    "line1": "1 49106U 21075AH  26158.28243036  .00000189  00000+0  49043-3 0  9995",
    "line2": "2 49106  87.8953 352.6198 0002353  86.1621 273.9777 13.12444596233259"
  },
  {
    "name": "ONEWEB-0329",
    "noradId": "49107",
    "line1": "1 49107U 21075AJ  26158.00639101  .00000082  00000+0  17807-3 0  9993",
    "line2": "2 49107  87.9141   7.8945 0001986  89.3107 270.8252 13.17648158232241"
  },
  {
    "name": "ONEWEB-0330",
    "noradId": "49108",
    "line1": "1 49108U 21075AK  26157.65048678 -.00000051  00000+0 -16347-3 0  9993",
    "line2": "2 49108  87.9144   7.9851 0001915  94.9928 265.1422 13.17648807232233"
  },
  {
    "name": "ONEWEB-0292",
    "noradId": "49186",
    "line1": "1 49186U 21083A   26158.18628979 -.00000162  00000+0 -47960-3 0  9993",
    "line2": "2 49186  87.8937 322.2315 0001987  91.8154 268.3203 13.13469973229613"
  },
  {
    "name": "ONEWEB-0303",
    "noradId": "49187",
    "line1": "1 49187U 21083B   26158.21225410  .00000044  00000+0  78369-4 0  9996",
    "line2": "2 49187  87.9160 337.4414 0002027  89.7034 270.4331 13.18686175228660"
  },
  {
    "name": "ONEWEB-0306",
    "noradId": "49188",
    "line1": "1 49188U 21083C   26158.20213372  .00000108  00000+0  24151-3 0  9990",
    "line2": "2 49188  87.9167 337.4310 0001638  95.1691 264.9628 13.18686374228703"
  },
  {
    "name": "ONEWEB-0307",
    "noradId": "49189",
    "line1": "1 49189U 21083D   26158.18036878 -.00000309  00000+0 -88123-3 0  9996",
    "line2": "2 49189  87.8951 322.2286 0001963  94.5417 265.5937 13.13470115229618"
  },
  {
    "name": "ONEWEB-0320",
    "noradId": "49190",
    "line1": "1 49190U 21083E   26158.22235642 -.00000095  00000+0 -27441-3 0  9991",
    "line2": "2 49190  87.9153 337.4462 0001825  91.5068 268.6273 13.18684458228668"
  },
  {
    "name": "ONEWEB-0321",
    "noradId": "49191",
    "line1": "1 49191U 21083F   26158.04964090  .00000071  00000+0  14179-3 0  9994",
    "line2": "2 49191  87.9187 276.4555 0001717 104.6711 255.4613 13.20771240235492"
  },
  {
    "name": "ONEWEB-0322",
    "noradId": "49192",
    "line1": "1 49192U 21083G   26158.17613255 -.00000277  00000+0 -79403-3 0  9994",
    "line2": "2 49192  87.8950 322.2298 0001386  91.9048 268.2240 13.13469985229603"
  },
  {
    "name": "ONEWEB-0324",
    "noradId": "49193",
    "line1": "1 49193U 21083H   26158.19537235  .00000059  00000+0  11578-3 0  9995",
    "line2": "2 49193  87.9168 337.4377 0001863  96.8579 263.2766 13.18684589228684"
  },
  {
    "name": "ONEWEB-0325",
    "noradId": "49194",
    "line1": "1 49194U 21083J   26158.19875316  .00000002  00000+0 -27176-4 0  9992",
    "line2": "2 49194  87.9159 337.4463 0001831  88.3611 271.7731 13.18685688228697"
  },
  {
    "name": "ONEWEB-0326",
    "noradId": "49195",
    "line1": "1 49195U 21083K   26158.21406621  .00000013  00000+0 -86350-6 0  9998",
    "line2": "2 49195  87.9168 337.4403 0002095  87.3290 272.8082 13.18684925228680"
  },
  {
    "name": "ONEWEB-0327",
    "noradId": "49196",
    "line1": "1 49196U 21083L   26158.21378538  .00000125  00000+0  28495-3 0  9990",
    "line2": "2 49196  87.9158 337.4452 0002106  82.0534 278.0837 13.18687545228700"
  },
  {
    "name": "ONEWEB-0328",
    "noradId": "49197",
    "line1": "1 49197U 21083M   26158.16597556 -.00000203  00000+0 -59033-3 0  9999",
    "line2": "2 49197  87.8956 322.2040 0001888  98.8630 261.2713 13.13469014229587"
  },
  {
    "name": "ONEWEB-0331",
    "noradId": "49198",
    "line1": "1 49198U 21083N   26158.20719210 -.00000003  00000+0 -40646-4 0  9997",
    "line2": "2 49198  87.9166 337.4351 0002168  88.9822 271.1559 13.18685801228698"
  },
  {
    "name": "ONEWEB-0333",
    "noradId": "49199",
    "line1": "1 49199U 21083P   26158.16089607 -.00000111  00000+0 -33864-3 0  9996",
    "line2": "2 49199  87.8947 322.2324 0001800  92.2393 267.8942 13.13468729229591"
  },
  {
    "name": "ONEWEB-0334",
    "noradId": "49200",
    "line1": "1 49200U 21083Q   26158.06730895 -.00000047  00000+0 -14791-3 0  9996",
    "line2": "2 49200  87.9175 276.4640 0000998 107.9612 252.1630 13.20773172235456"
  },
  {
    "name": "ONEWEB-0335",
    "noradId": "49201",
    "line1": "1 49201U 21083R   26158.15582545  .00000053  00000+0  11124-3 0  9996",
    "line2": "2 49201  87.8948 322.2303 0002001  93.4884 266.6474 13.13469568229606"
  }
]