OBJECT_NAME,OBJECT_ID,EPOCH,MEAN_MOTION,ECCENTRICITY,INCLINATION,RA_OF_ASC_NODE,ARG_OF_PERICENTER,MEAN_ANOMALY,EPHEMERIS_TYPE,CLASSIFICATION_TYPE,NORAD_CAT_ID,ELEMENT_SET_NO,REV_AT_EPOCH,BSTAR,MEAN_MOTION_DOT,MEAN_MOTION_DDOT
ONEWEB-0309,2021-075W,2026-06-07T07:02:17.218176,13.17647649,.0001742,87.9144,7.8314,102.3023,257.8304,0,U,49095,999,23227,-.2754398E-5,.12E-6,0
ONEWEB-0310,2021-075X,2026-06-06T18:59:12.354144,13.12442744,.00017947,87.8942,352.7487,90.0385,270.0949,0,U,49096,999,23382,-.10405019E-2,-.362E-5,0
ONEWEB-0311,2021-075Y,2026-06-06T23:54:38.425248,13.17648970,.00023265,87.9139,7.8899,85.9415,274.1982,0,U,49097,999,23228,.27302328E-3,.119E-5,0
ONEWEB-0312,2021-075Z,2026-06-06T20:37:48.341856,13.17649178,.00020844,87.9140,7.9284,93.6899,266.4470,0,U,49098,999,23224,-.19168433E-3,-.62E-6,0
ONEWEB-0313,2021-075AA,2026-06-06T20:44:52.845792,13.17647796,.00019651,87.9139,7.9334,87.0806,273.0551,0,U,49099,999,23223,-.87977889E-3,-.329E-5,0
ONEWEB-0314,2021-075AB,2026-06-07T06:52:35.299488,13.17648691,.00021422,87.9152,7.8205,94.4445,265.6931,0,U,49100,999,23226,-.14998514E-4,.7E-7,0
ONEWEB-0315,2021-075AC,2026-06-06T20:09:58.219488,13.12442619,.00021302,87.8951,352.7029,85.7191,274.4181,0,U,49101,999,23381,.14299807E-2,.527E-5,0
ONEWEB-0316,2021-075AD,2026-06-07T05:15:21.662208,13.18653368,.00017549,87.9168,337.4408,112.6221,247.5097,0,U,49102,999,23589,.16343761E-1,.6458E-4,0
ONEWEB-0317,2021-075AE,2026-06-06T23:54:24.728256,13.12442727,.00011871,87.8952,352.6951,105.1944,254.9316,0,U,49103,999,23385,.11633624E-2,.431E-5,0
ONEWEB-0318,2021-075AF,2026-06-07T05:10:29.813376,13.18685287,.0002067,87.9168,337.4420,87.6445,272.4924,0,U,49104,999,23585,-.19562766E-3,-.64E-6,0
ONEWEB-0319,2021-075AG,2026-06-06T23:57:03.267936,13.17648139,.0002376,87.9140,7.8954,80.6158,279.5243,0,U,49105,999,23226,-.37513077E-4,-.2E-7,0
ONEWEB-0323,2021-075AH,2026-06-07T06:46:41.983104,13.12444596,.00023531,87.8953,352.6198,86.1621,273.9777,0,U,49106,999,23325,.4904284E-3,.189E-5,0
ONEWEB-0329,2021-075AJ,2026-06-07T00:09:12.183264,13.17648158,.00019868,87.9141,7.8945,89.3107,270.8252,0,U,49107,999,23224,.17806837E-3,.82E-6,0
ONEWEB-0330,2021-075AK,2026-06-06T15:36:42.057792,13.17648807,.00019157,87.9144,7.9851,94.9928,265.1422,0,U,49108,999,23223,-.16346615E-3,-.51E-6,0
ONEWEB-0292,2021-083A,2026-06-07T04:28:15.437856,13.13469973,.00019873,87.8937,322.2315,91.8154,268.3203,0,U,49186,999,22961,-.47960017E-3,-.162E-5,0
ONEWEB-0303,2021-083B,2026-06-07T05:05:38.754240,13.18686175,.00020277,87.9160,337.4414,89.7034,270.4331,0,U,49187,999,22866,.78368816E-4,.44E-6,0
ONEWEB-0306,2021-083C,2026-06-07T04:51:04.353408,13.18686374,.00016382,87.9167,337.4310,95.1691,264.9628,0,U,49188,999,22870,.24151222E-3,.108E-5,0
ONEWEB-0307,2021-083D,2026-06-07T04:19:43.862592,13.13470115,.00019631,87.8951,322.2286,94.5417,265.5937,0,U,49189,999,22961,-.8812275E-3,-.309E-5,0
ONEWEB-0320,2021-083E,2026-06-07T05:20:11.594688,13.18684458,.00018254,87.9153,337.4462,91.5068,268.6273,0,U,49190,999,22866,-.27440884E-3,-.95E-6,0
ONEWEB-0321,2021-083F,2026-06-07T01:11:28.973760,13.20771240,.00017171,87.9187,276.4555,104.6711,255.4613,0,U,49191,999,23549,.1417933E-3,.71E-6,0
ONEWEB-0322,2021-083G,2026-06-07T04:13:37.852320,13.13469985,.00013868,87.8950,322.2298,91.9048,268.2240,0,U,49192,999,22960,-.79402815E-3,-.277E-5,0
ONEWEB-0324,2021-083H,2026-06-07T04:41:20.171040,13.18684589,.00018634,87.9168,337.4377,96.8579,263.2766,0,U,49193,999,22868,.11577761E-3,.59E-6,0
ONEWEB-0325,2021-083J,2026-06-07T04:46:12.273024,13.18685688,.00018311,87.9159,337.4463,88.3611,271.7731,0,U,49194,999,22869,-.2717558E-4,.2E-7,0
ONEWEB-0326,2021-083K,2026-06-07T05:08:15.320544,13.18684925,.00020958,87.9168,337.4403,87.3290,272.8082,0,U,49195,999,22868,-.863503E-6,.13E-6,0
ONEWEB-0327,2021-083L,2026-06-07T05:07:51.056832,13.18687545,.00021063,87.9158,337.4452,82.0534,278.0837,0,U,49196,999,22870,.28495346E-3,.125E-5,0
ONEWEB-0328,2021-083M,2026-06-07T03:59:00.288384,13.13469014,.00018889,87.8956,322.2040,98.8630,261.2713,0,U,49197,999,22958,-.59033276E-3,-.203E-5,0
ONEWEB-0331,2021-083N,2026-06-07T04:58:21.397440,13.18685801,.00021681,87.9166,337.4351,88.9822,271.1559,0,U,49198,999,22869,-.40646369E-4,-.3E-7,0
ONEWEB-0333,2021-083P,2026-06-07T03:51:41.420448,13.13468729,.00018001,87.8947,322.2324,92.2393,267.8942,0,U,49199,999,22959,-.33864289E-3,-.111E-5,0
ONEWEB-0334,2021-083Q,2026-06-07T01:36:55.493280,13.20773172,.00009987,87.9175,276.4640,107.9612,252.1630,0,U,49200,999,23545,-.14790975E-3,-.47E-6,0
ONEWEB-0335,2021-083R,2026-06-07T03:44:23.318880,13.13469568,.00020011,87.8948,322.2303,93.4884,266.6474,0,U,49201,999,22960,.11124226E-3,.53E-6,0
